[{"OBJECT_NAME":"STARLINK-34224","OBJECT_ID":"2025-119U","EPOCH":"2026-03-09T01:05:40.856928","MEAN_MOTION":15.27583101,"ECCENTRICITY":0.00018358,"INCLINATION":43.003,"RA_OF_ASC_NODE":310.4451,"ARG_OF_PERICENTER":257.2623,"MEAN_ANOMALY":102.8023,"EPHEMERIS_TYPE":0,"CLASSIFICATION_TYPE":"U","NORAD_CAT_ID":64251,"ELEMENT_SET_NO":999,"REV_AT_EPOCH":4407,"BSTAR":0.0013817195,"MEAN_MOTION_DOT":0.0003796,"MEAN_MOTION_DDOT":0},{"OBJECT_NAME":"CZ-6A DEB","OBJECT_ID":"2022-151CC","EPOCH":"2026-03-09T19:21:24.185952","MEAN_MOTION":15.21292269,"ECCENTRICITY":0.00294338,"INCLINATION":98.6347,"RA_OF_ASC_NODE":160.1892,"ARG_OF_PERICENTER":145.6687,"MEAN_ANOMALY":214.6455,"EPHEMERIS_TYPE":0,"CLASSIFICATION_TYPE":"U","NORAD_CAT_ID":54333,"ELEMENT_SET_NO":999,"REV_AT_EPOCH":17712,"BSTAR":0.0073643753,"MEAN_MOTION_DOT":0.00170206,"MEAN_MOTION_DDOT":0}]
